ONEWEB-0086             
1 45456U 20020AJ  24053.93554998 -.00000488  00000+0 -14139-2 0  9995
2 45456  87.9013 189.0875 0002036  98.8557 261.2801 13.11417348191829
ONEWEB-0088             
1 45457U 20020AK  24053.91282740  .00000274  00000+0  73799-3 0  9996
2 45457  87.9008 189.0621 0001785 106.2341 253.8984 13.11415851191756
ONEWEB-0102             
1 47258U 20100A   24053.81802120  .00000259  00000+0  68522-3 0  9996
2 47258  87.9045 158.9126 0001568 110.0110 250.1187 13.12444626153845
ONEWEB-0109             
1 47259U 20100B   24053.82597252  .00000286  00000+0  75983-3 0  9994
2 47259  87.9046 158.8739 0001616 107.9685 252.1620 13.12443617153676
ONEWEB-0110             
1 47260U 20100C   24053.84978940 -.00000377  00000+0 -10842-2 0  9990
2 47260  87.9040 158.8811 0001657 101.7866 258.3448 13.12441294153845
ONEWEB-0111             
1 47261U 20100D   24053.80691441  .00000282  00000+0  74896-3 0  9998
2 47261  87.9046 158.8806 0001684 106.0738 254.0576 13.12444744153671
ONEWEB-0114             
1 47262U 20100E   24053.83708431 -.00000060  00000+0 -20132-3 0  9990
2 47262  87.9040 158.8951 0001265 117.0762 243.0496 13.12443325153630
ONEWEB-0117             
1 47263U 20100F   24053.82915248  .00000210  00000+0  54826-3 0  9998
2 47263  87.9047 158.8669 0001778 107.6191 252.5131 13.12443190153646
